start=new Date('2023-07-04T00:00:00.000Z').valueOf();
sats=[{"SITE":"AFETR","TIME_SYSTEM":"UTC","PERIOD":"94.581","ARG_OF_PERICENTER":"63.3884","ECCENTRICITY":"0.00027940","GP_ID":"234698582","REF_FRAME":"TEME","RCS_SIZE":"LARGE","TLE_LINE1":"1 52277U 22041S   23184.40582304  .00034680  00000-0  14849-2 0  9995","REV_AT_EPOCH":"6770","FILE":"3948792","COUNTRY_CODE":"US","OBJECT_TYPE":"PAYLOAD","MEAN_MOTION_DOT":"0.00034680","CENTER_NAME":"EARTH","PERIAPSIS":"496.387","LAUNCH_DATE":"2022-04-21","EPOCH":"2023-07-03T09:44:23.110656","MEAN_ANOMALY":"296.7400","MEAN_MOTION_DDOT":"0.0000000000000","MEAN_MOTION":"15.22498965","SEMIMAJOR_AXIS":"6876.443","ELEMENT_SET_NO":"999","BSTAR":"0.00148490000000","APOAPSIS":"500.229","RA_OF_ASC_NODE":"182.2495","CLASSIFICATION_TYPE":"U","OBJECT_ID":"2022-041S","EPHEMERIS_TYPE":"0","TLE_LINE2":"2 52277  53.2175 182.2495 0002794  63.3884 296.7400 15.22498965 67702","INCLINATION":"53.2175","MEAN_ELEMENT_THEORY":"SGP4","NORAD_CAT_ID":"52277","DECAY_DATE":null,"OBJECT_NAME":"STARLINK-3787"},{"TLE_LINE2":"2 52278  53.2155 188.4077 0001114  81.4912 278.6206 15.08836322 67646","EPHEMERIS_TYPE":"0","OBJECT_ID":"2022-041T","CLASSIFICATION_TYPE":"U","RA_OF_ASC_NODE":"188.4077","APOAPSIS":"540.527","BSTAR":"0.00004566000000","DECAY_DATE":null,"OBJECT_NAME":"STARLINK-3780","NORAD_CAT_ID":"52278","MEAN_ELEMENT_THEORY":"SGP4","INCLINATION":"53.2155","FILE":"3948792","TLE_LINE1":"1 52278U 22041T   23184.71214857  .00000439  00000-0  45660-4 0  9997","REV_AT_EPOCH":"6764","RCS_SIZE":"LARGE","REF_FRAME":"TEME","GP_ID":"234698591","ECCENTRICITY":"0.00011140","PERIOD":"95.438","TIME_SYSTEM":"UTC","ARG_OF_PERICENTER":"81.4912","SITE":"AFETR","ELEMENT_SET_NO":"999","SEMIMAJOR_AXIS":"6917.892","MEAN_MOTION":"15.08836322","MEAN_MOTION_DDOT":"0.0000000000000","MEAN_ANOMALY":"278.6206","EPOCH":"2023-07-03T17:05:29.636448","LAUNCH_DATE":"2022-04-21","PERIAPSIS":"538.986","CENTER_NAME":"EARTH","MEAN_MOTION_DOT":"0.00000439","OBJECT_TYPE":"PAYLOAD","COUNTRY_CODE":"US"},{"BSTAR":"0.00074277000000","APOAPSIS":"496.034","RA_OF_ASC_NODE":"177.2862","OBJECT_ID":"2022-041U","CLASSIFICATION_TYPE":"U","TLE_LINE2":"2 52279  53.2324 177.2862 0002485  43.0315 317.0878 15.23822295 67808","EPHEMERIS_TYPE":"0","INCLINATION":"53.2324","MEAN_ELEMENT_THEORY":"SGP4","NORAD_CAT_ID":"52279","OBJECT_NAME":"STARLINK-3686","DECAY_DATE":null,"TIME_SYSTEM":"UTC","PERIOD":"94.499","ARG_OF_PERICENTER":"43.0315","SITE":"AFETR","ECCENTRICITY":"0.00024850","GP_ID":"234698092","REF_FRAME":"TEME","TLE_LINE1":"1 52279U 22041U   23184.71698594  .00017836  00000-0  74277-3 0  9996","REV_AT_EPOCH":"6780","RCS_SIZE":"LARGE","FILE":"3948792","COUNTRY_CODE":"US","OBJECT_TYPE":"PAYLOAD","LAUNCH_DATE":"2022-04-21","PERIAPSIS":"492.618","MEAN_MOTION_DOT":"0.00017836","CENTER_NAME":"EARTH","EPOCH":"2023-07-03T17:12:27.585216","MEAN_ANOMALY":"317.0878","MEAN_MOTION_DDOT":"0.0000000000000","MEAN_MOTION":"15.23822295","ELEMENT_SET_NO":"999","SEMIMAJOR_AXIS":"6872.461"},{"MEAN_MOTION_DDOT":"0.0000000000000","MEAN_ANOMALY":"273.1844","ELEMENT_SET_NO":"999","SEMIMAJOR_AXIS":"6917.894","MEAN_MOTION":"15.08835401","OBJECT_TYPE":"PAYLOAD","COUNTRY_CODE":"US","EPOCH":"2023-07-03T02:31:07.244544","LAUNCH_DATE":"2022-04-21","PERIAPSIS":"538.954","CENTER_NAME":"EARTH","MEAN_MOTION_DOT":"0.00000326","TLE_LINE1":"1 52280U 22041V   23184.10494496  .00000326  00000-0  38593-4 0  9994","RCS_SIZE":"LARGE","REV_AT_EPOCH":"6755","FILE":"3948094","ECCENTRICITY":"0.00011650","ARG_OF_PERICENTER":"86.9281","PERIOD":"95.438","TIME_SYSTEM":"UTC","SITE":"AFETR","REF_FRAME":"TEME","GP_ID":"234683328","DECAY_DATE":null,"OBJECT_NAME":"STARLINK-3764","NORAD_CAT_ID":"52280","MEAN_ELEMENT_THEORY":"SGP4","INCLINATION":"53.2164","TLE_LINE2":"2 52280  53.2164 191.1366 0001165  86.9281 273.1844 15.08835401 67551","EPHEMERIS_TYPE":"0","OBJECT_ID":"2022-041V","CLASSIFICATION_TYPE":"U","BSTAR":"0.00003859300000","RA_OF_ASC_NODE":"191.1366","APOAPSIS":"540.565"},{"RCS_SIZE":"LARGE","TLE_LINE1":"1 52281U 22041W   23183.72318322 -.00000106  00000-0  11399-4 0  9997","REV_AT_EPOCH":"6749","FILE":"3948095","ECCENTRICITY":"0.00011410","SITE":"AFETR","ARG_OF_PERICENTER":"83.7611","PERIOD":"95.438","TIME_SYSTEM":"UTC","REF_FRAME":"TEME","GP_ID":"234683562","MEAN_MOTION_DDOT":"0.0000000000000","MEAN_ANOMALY":"276.3511","ELEMENT_SET_NO":"999","SEMIMAJOR_AXIS":"6917.890","MEAN_MOTION":"15.08836769","OBJECT_TYPE":"PAYLOAD","COUNTRY_CODE":"US","EPOCH":"2023-07-02T17:21:23.030208","MEAN_MOTION_DOT":"-0.00000106","CENTER_NAME":"EARTH","PERIAPSIS":"538.966","LAUNCH_DATE":"2022-04-21","EPHEMERIS_TYPE":"0","TLE_LINE2":"2 52281  53.2167 192.8514 0001141  83.7611 276.3511 15.08836769 67491","CLASSIFICATION_TYPE":"U","OBJECT_ID":"2022-041W","BSTAR":"0.00001139900000","RA_OF_ASC_NODE":"192.8514","APOAPSIS":"540.545","OBJECT_NAME":"STARLINK-3779","DECAY_DATE":null,"NORAD_CAT_ID":"52281","MEAN_ELEMENT_THEORY":"SGP4","INCLINATION":"53.2167"},{"MEAN_ELEMENT_THEORY":"SGP4","NORAD_CAT_ID":"52282","INCLINATION":"53.2157","OBJECT_NAME":"STARLINK-3783","DECAY_DATE":null,"RA_OF_ASC_NODE":"181.4680","APOAPSIS":"540.476","BSTAR":"0.00006143100000","EPHEMERIS_TYPE":"0","TLE_LINE2":"2 52282  53.2157 181.4680 0001027  83.4776 276.6333 15.08833323 67679","CLASSIFICATION_TYPE":"U","OBJECT_ID":"2022-041X","EPOCH":"2023-07-03T00:47:50.753184","CENTER_NAME":"EARTH","MEAN_MOTION_DOT":"0.00000690","LAUNCH_DATE":"2022-04-21","PERIAPSIS":"539.055","OBJECT_TYPE":"PAYLOAD","COUNTRY_CODE":"US","ELEMENT_SET_NO":"999","SEMIMAJOR_AXIS":"6917.901","MEAN_MOTION":"15.08833323","MEAN_MOTION_DDOT":"0.0000000000000","MEAN_ANOMALY":"276.6333","REF_FRAME":"TEME","GP_ID":"234683594","ECCENTRICITY":"0.00010270","SITE":"AFETR","PERIOD":"95.438","TIME_SYSTEM":"UTC","ARG_OF_PERICENTER":"83.4776","FILE":"3948097","TLE_LINE1":"1 52282U 22041X   23184.03322631  .00000690  00000-0  61431-4 0  9990","REV_AT_EPOCH":"6767","RCS_SIZE":"LARGE"},{"NORAD_CAT_ID":"52283","MEAN_ELEMENT_THEORY":"SGP4","INCLINATION":"53.2157","OBJECT_NAME":"STARLINK-3789","DECAY_DATE":null,"BSTAR":"0.00002716700000","RA_OF_ASC_NODE":"188.4245","APOAPSIS":"540.557","EPHEMERIS_TYPE":"0","TLE_LINE2":"2 52283  53.2157 188.4245 0001158  80.5101 279.6022 15.08836413 67647","OBJECT_ID":"2022-041Y","CLASSIFICATION_TYPE":"U","OBJECT_TYPE":"PAYLOAD","COUNTRY_CODE":"US","EPOCH":"2023-07-03T17:00:11.527200","MEAN_MOTION_DOT":"0.00000145","CENTER_NAME":"EARTH","PERIAPSIS":"538.955","LAUNCH_DATE":"2022-04-21","MEAN_MOTION_DDOT":"0.0000000000000","MEAN_ANOMALY":"279.6022","SEMIMAJOR_AXIS":"6917.891","ELEMENT_SET_NO":"999","MEAN_MOTION":"15.08836413","ECCENTRICITY":"0.00011580","SITE":"AFETR","PERIOD":"95.438","ARG_OF_PERICENTER":"80.5101","TIME_SYSTEM":"UTC","REF_FRAME":"TEME","GP_ID":"234697999","TLE_LINE1":"1 52283U 22041Y   23184.70846675  .00000145  00000-0  27167-4 0  9997","REV_AT_EPOCH":"6764","RCS_SIZE":"LARGE","FILE":"3948782"},{"ELEMENT_SET_NO":"999","SEMIMAJOR_AXIS":"6917.905","MEAN_MOTION":"15.08832010","MEAN_MOTION_DDOT":"0.0000000000000","MEAN_ANOMALY":"264.8215","EPOCH":"2023-07-03T00:35:51.864576","PERIAPSIS":"538.980","LAUNCH_DATE":"2022-04-21","CENTER_NAME":"EARTH","MEAN_MOTION_DOT":"0.00000838","OBJECT_TYPE":"PAYLOAD","COUNTRY_CODE":"US","FILE":"3948109","TLE_LINE1":"1 52284U 22041Z   23184.02490584  .00000838  00000-0  70764-4 0  9997","RCS_SIZE":"LARGE","REV_AT_EPOCH":"6767","REF_FRAME":"TEME","GP_ID":"234683696","ECCENTRICITY":"0.00011420","PERIOD":"95.438","TIME_SYSTEM":"UTC","ARG_OF_PERICENTER":"95.2907","SITE":"AFETR","OBJECT_NAME":"STARLINK-3561","DECAY_DATE":null,"MEAN_ELEMENT_THEORY":"SGP4","NORAD_CAT_ID":"52284","INCLINATION":"53.2159","TLE_LINE2":"2 52284  53.2159 181.4943 0001142  95.2907 264.8215 15.08832010 67670","EPHEMERIS_TYPE":"0","OBJECT_ID":"2022-041Z","CLASSIFICATION_TYPE":"U","RA_OF_ASC_NODE":"181.4943","APOAPSIS":"540.560","BSTAR":"0.00007076400000"},{"BSTAR":"0.00004125200000","RA_OF_ASC_NODE":"189.6324","APOAPSIS":"540.493","TLE_LINE2":"2 52285  53.2151 189.6324 0001063  86.5973 273.5140 15.08836025 67612","EPHEMERIS_TYPE":"0","CLASSIFICATION_TYPE":"U","OBJECT_ID":"2022-041AA","MEAN_ELEMENT_THEORY":"SGP4","NORAD_CAT_ID":"52285","INCLINATION":"53.2151","DECAY_DATE":null,"OBJECT_NAME":"STARLINK-3775","ECCENTRICITY":"0.00010630","PERIOD":"95.438","TIME_SYSTEM":"UTC","ARG_OF_PERICENTER":"86.5973","SITE":"AFETR","REF_FRAME":"TEME","GP_ID":"234691331","TLE_LINE1":"1 52285U 22041AA  23184.43982496  .00000369  00000-0  41252-4 0  9990","REV_AT_EPOCH":"6761","RCS_SIZE":"LARGE","FILE":"3948423","OBJECT_TYPE":"PAYLOAD","COUNTRY_CODE":"US","EPOCH":"2023-07-03T10:33:20.876544","LAUNCH_DATE":"2022-04-21","PERIAPSIS":"539.022","CENTER_NAME":"EARTH","MEAN_MOTION_DOT":"0.00000369","MEAN_MOTION_DDOT":"0.0000000000000","MEAN_ANOMALY":"273.5140","SEMIMAJOR_AXIS":"6917.893","ELEMENT_SET_NO":"999","MEAN_MOTION":"15.08836025"},{"MEAN_ELEMENT_THEORY":"SGP4","NORAD_CAT_ID":"52286","INCLINATION":"53.2162","DECAY_DATE":null,"OBJECT_NAME":"STARLINK-3802","BSTAR":"-0.00000762730000","RA_OF_ASC_NODE":"178.5544","APOAPSIS":"540.513","TLE_LINE2":"2 52286  53.2162 178.5544 0001089  77.8161 282.2953 15.08835298 67773","EPHEMERIS_TYPE":"0","OBJECT_ID":"2022-041AB","CLASSIFICATION_TYPE":"U","OBJECT_TYPE":"PAYLOAD","COUNTRY_CODE":"US","EPOCH":"2023-07-03T16:19:07.377600","PERIAPSIS":"539.006","LAUNCH_DATE":"2022-04-21","MEAN_MOTION_DOT":"-0.00000409","CENTER_NAME":"EARTH","MEAN_MOTION_DDOT":"0.0000000000000","MEAN_ANOMALY":"282.2953","ELEMENT_SET_NO":"999","SEMIMAJOR_AXIS":"6917.895","MEAN_MOTION":"15.08835298","ECCENTRICITY":"0.00010890","TIME_SYSTEM":"UTC","PERIOD":"95.438","ARG_OF_PERICENTER":"77.8161","SITE":"AFETR","REF_FRAME":"TEME","GP_ID":"234698135","TLE_LINE1":"1 52286U 22041AB  23184.67994650 -.00000409  00000-0 -76273-5 0  9991","REV_AT_EPOCH":"6777","RCS_SIZE":"LARGE","FILE":"3948805"}];
